{"type": "FeatureCollection", "features": [ {"type": "Feature", "properties": {"norad_id": 34529, "name": "IRIDIUM 33 DEB", "group": "iridium-33-debris", "lat": 71.69802018938854, "lon": 43.63548229752034, "alt_km": 749.2538781248968, "timestamp": "2025-12-19T10:50:01.586586+00:00", "meta": {"OBJECT_NAME": "IRIDIUM 33 DEB", "OBJECT_ID": "1997-051HW", "EPOCH": "2025-12-18T14:29:46.495968", "MEAN_MOTION": 14.40620248, "ECCENTRICITY": 0.00055161, "INCLINATION": 86.3637, "RA_OF_ASC_NODE": 32.9118, "ARG_OF_PERICENTER": 159.4672, "MEAN_ANOMALY": 200.675, "EPHEMERIS_TYPE": 0, "CLASSIFICATION_TYPE": "U", "NORAD_CAT_ID": 34529, "ELEMENT_SET_NO": 999, "REV_AT_EPOCH": 88226, "BSTAR": 8.9957173e-05, "MEAN_MOTION_DOT": 3.07e-06, "MEAN_MOTION_DDOT": 0}, "tle": {"line1": "1 34529U 97051HW  25352.60401037  .00000307  00000+0  89957-4 0  9994", "line2": "2 34529  86.3637  32.9118 0005516 159.4672 200.6750 14.40620248882260"}}, "geometry": {"type": "Point", "coordinates": [43.63548229752034, 71.69802018938854]}}, {"type": "Feature", "properties": {"norad_id": 34538, "name": "IRIDIUM 33 DEB", "group": "iridium-33-debris", "lat": -41.18470142454357, "lon": -0.6502041297695275, "alt_km": 733.9466545826008, "timestamp": "2025-12-19T10:50:01.586597+00:00", "meta": {"OBJECT_NAME": "IRIDIUM 33 DEB", "OBJECT_ID": "1997-051JF", "EPOCH": "2025-12-18T18:39:10.772064", "MEAN_MOTION": 14.42682193, "ECCENTRICITY": 0.00322699, "INCLINATION": 86.2762, "RA_OF_ASC_NODE": 2.9117, "ARG_OF_PERICENTER": 307.2305, "MEAN_ANOMALY": 112.1518, "EPHEMERIS_TYPE": 0, "CLASSIFICATION_TYPE": "U", "NORAD_CAT_ID": 34538, "ELEMENT_SET_NO": 999, "REV_AT_EPOCH": 87843, "BSTAR": 0.00069403531, "MEAN_MOTION_DOT": 2.341e-05, "MEAN_MOTION_DDOT": 0}, "tle": {"line1": "1 34538U 97051JF  25352.77720801  .00002341  00000+0  69404-3 0  9999", "line2": "2 34538  86.2762   2.9117 0032269 307.2305 112.1518 14.42682193878437"}}, "geometry": {"type": "Point", "coordinates": [-0.6502041297695275, -41.18470142454357]}}, {"type": "Feature", "properties": {"norad_id": 34540, "name": "IRIDIUM 33 DEB", "group": "iridium-33-debris", "lat": 84.71776943184514, "lon": -11.198673957400777, "alt_km": 628.4167264334474, "timestamp": "2025-12-19T10:50:01.586607+00:00", "meta": {"OBJECT_NAME": "IRIDIUM 33 DEB", "OBJECT_ID": "1997-051JH", "EPOCH": "2025-12-18T08:57:29.352960", "MEAN_MOTION": 14.75435184, "ECCENTRICITY": 0.00173002, "INCLINATION": 86.3103, "RA_OF_ASC_NODE": 305.0304, "ARG_OF_PERICENTER": 139.8381, "MEAN_ANOMALY": 343.587, "EPHEMERIS_TYPE": 0, "CLASSIFICATION_TYPE": "U", "NORAD_CAT_ID": 34540, "ELEMENT_SET_NO": 999, "REV_AT_EPOCH": 89104, "BSTAR": 0.0013410572, "MEAN_MOTION_DOT": 9.16e-05, "MEAN_MOTION_DDOT": 0}, "tle": {"line1": "1 34540U 97051JH  25352.37325640  .00009160  00000+0  13411-2 0  9992", "line2": "2 34540  86.3103 305.0304 0017300 139.8381 343.5870 14.75435184891042"}}, "geometry": {"type": "Point", "coordinates": [-11.198673957400777, 84.71776943184514]}}, {"type": "Feature", "properties": {"norad_id": 34648, "name": "IRIDIUM 33 DEB", "group": "iridium-33-debris", "lat": 46.88684795627844, "lon": 95.3697274257258, "alt_km": 955.8982270404431, "timestamp": "2025-12-19T10:50:01.586618+00:00", "meta": {"OBJECT_NAME": "IRIDIUM 33 DEB", "OBJECT_ID": "1997-051JZ", "EPOCH": "2025-12-18T13:46:37.352352", "MEAN_MOTION": 14.1166623, "ECCENTRICITY": 0.01808845, "INCLINATION": 86.3904, "RA_OF_ASC_NODE": 279.59, "ARG_OF_PERICENTER": 280.6676, "MEAN_ANOMALY": 77.4184, "EPHEMERIS_TYPE": 0, "CLASSIFICATION_TYPE": "U", "NORAD_CAT_ID": 34648, "ELEMENT_SET_NO": 999, "REV_AT_EPOCH": 85043, "BSTAR": 0.0055375481, "MEAN_MOTION_DOT": 0.00011772, "MEAN_MOTION_DDOT": 0}, "tle": {"line1": "1 34648U 97051JZ  25352.57404343  .00011772  00000+0  55375-2 0  9998", "line2": "2 34648  86.3904 279.5900 0180884 280.6676  77.4184 14.11666230850434"}}, "geometry": {"type": "Point", "coordinates": [95.3697274257258, 46.88684795627844]}}, {"type": "Feature", "properties": {"norad_id": 34651, "name": "IRIDIUM 33 DEB", "group": "iridium-33-debris", "lat": 3.928054689364137, "lon": -42.53357001345017, "alt_km": 706.4132599776467, "timestamp": "2025-12-19T10:50:01.586628+00:00", "meta": {"OBJECT_NAME": "IRIDIUM 33 DEB", "OBJECT_ID": "1997-051KC", "EPOCH": "2025-12-18T20:32:10.493664", "MEAN_MOTION": 14.25912214, "ECCENTRICITY": 0.01422304, "INCLINATION": 86.2828, "RA_OF_ASC_NODE": 137.9757, "ARG_OF_PERICENTER": 184.5994, "MEAN_ANOMALY": 175.3902, "EPHEMERIS_TYPE": 0, "CLASSIFICATION_TYPE": "U", "NORAD_CAT_ID": 34651, "ELEMENT_SET_NO": 999, "REV_AT_EPOCH": 85983, "BSTAR": 0.0024078019, "MEAN_MOTION_DOT": 6.398e-05, "MEAN_MOTION_DDOT": 0}, "tle": {"line1": "1 34651U 97051KC  25352.85567701  .00006398  00000+0  24078-2 0  9995", "line2": "2 34651  86.2828 137.9757 0142230 184.5994 175.3902 14.25912214859837"}}, "geometry": {"type": "Point", "coordinates": [-42.53357001345017, 3.928054689364137]}}, {"type": "Feature", "properties": {"norad_id": 34652, "name": "IRIDIUM 33 DEB", "group": "iridium-33-debris", "lat": 21.12567793627456, "lon": -21.56649024783718, "alt_km": 691.697234324899, "timestamp": "2025-12-19T10:50:01.586638+00:00", "meta": {"OBJECT_NAME": "IRIDIUM 33 DEB", "OBJECT_ID": "1997-051KD", "EPOCH": "2025-12-18T17:14:29.252832", "MEAN_MOTION": 14.62111337, "ECCENTRICITY": 0.0025564, "INCLINATION": 86.3309, "RA_OF_ASC_NODE": 337.3391, "ARG_OF_PERICENTER": 276.3765, "MEAN_ANOMALY": 208.8285, "EPHEMERIS_TYPE": 0, "CLASSIFICATION_TYPE": "U", "NORAD_CAT_ID": 34652, "ELEMENT_SET_NO": 999, "REV_AT_EPOCH": 88571, "BSTAR": 0.00069226917, "MEAN_MOTION_DOT": 3.516e-05, "MEAN_MOTION_DDOT": 0}, "tle": {"line1": "1 34652U 97051KD  25352.71839413  .00003516  00000+0  69227-3 0  9998", "line2": "2 34652  86.3309 337.3391 0025564 276.3765 208.8285 14.62111337885719"}}, "geometry": {"type": "Point", "coordinates": [-21.56649024783718, 21.12567793627456]}}, {"type": "Feature", "properties": {"norad_id": 34690, "name": "IRIDIUM 33 DEB", "group": "iridium-33-debris", "lat": 75.03511328795283, "lon": 47.78293280745068, "alt_km": 699.2468168683381, "timestamp": "2025-12-19T10:50:01.586648+00:00", "meta": {"OBJECT_NAME": "IRIDIUM 33 DEB", "OBJECT_ID": "1997-051KM", "EPOCH": "2025-12-18T10:00:51.155136", "MEAN_MOTION": 14.55116306, "ECCENTRICITY": 0.00101708, "INCLINATION": 86.378, "RA_OF_ASC_NODE": 34.5242, "ARG_OF_PERICENTER": 10.8179, "MEAN_ANOMALY": 50.7531, "EPHEMERIS_TYPE": 0, "CLASSIFICATION_TYPE": "U", "NORAD_CAT_ID": 34690, "ELEMENT_SET_NO": 999, "REV_AT_EPOCH": 88177, "BSTAR": 0.00034845824, "MEAN_MOTION_DOT": 1.525e-05, "MEAN_MOTION_DDOT": 0}, "tle": {"line1": "1 34690U 97051KM  25352.41725874  .00001525  00000+0  34846-3 0  9999", "line2": "2 34690  86.3780  34.5242 0010170  10.8179  50.7531 14.55116306881775"}}, "geometry": {"type": "Point", "coordinates": [47.78293280745068, 75.03511328795283]}}, {"type": "Feature", "properties": {"norad_id": 34693, "name": "IRIDIUM 33 DEB", "group": "iridium-33-debris", "lat": 78.78949323994838, "lon": 101.45570247925511, "alt_km": 466.0575675692644, "timestamp": "2025-12-19T10:50:01.586659+00:00", "meta": {"OBJECT_NAME": "IRIDIUM 33 DEB", "OBJECT_ID": "1997-051KQ", "EPOCH": "2025-12-18T20:30:35.333568", "MEAN_MOTION": 15.29367567, "ECCENTRICITY": 0.0012164, "INCLINATION": 86.305, "RA_OF_ASC_NODE": 300.783, "ARG_OF_PERICENTER": 41.8212, "MEAN_ANOMALY": 14.7661, "EPHEMERIS_TYPE": 0, "CLASSIFICATION_TYPE": "U", "NORAD_CAT_ID": 34693, "ELEMENT_SET_NO": 999, "REV_AT_EPOCH": 89008, "BSTAR": 0.0035831985, "MEAN_MOTION_DOT": 0.00103466, "MEAN_MOTION_DDOT": 0}, "tle": {"line1": "1 34693U 97051KQ  25352.85457562  .00103466  00000+0  35832-2 0  9998", "line2": "2 34693  86.3050 300.7830 0012164  41.8212  14.7661 15.29367567890083"}}, "geometry": {"type": "Point", "coordinates": [101.45570247925511, 78.78949323994838]}}, {"type": "Feature", "properties": {"norad_id": 34696, "name": "IRIDIUM 33 DEB", "group": "iridium-33-debris", "lat": 80.57707819176657, "lon": -179.31218656677845, "alt_km": 632.1979435904677, "timestamp": "2025-12-19T10:50:01.586669+00:00", "meta": {"OBJECT_NAME": "IRIDIUM 33 DEB", "OBJECT_ID": "1997-051KT", "EPOCH": "2025-12-18T13:46:17.310144", "MEAN_MOTION": 14.65374938, "ECCENTRICITY": 0.00738622, "INCLINATION": 86.1844, "RA_OF_ASC_NODE": 24.8077, "ARG_OF_PERICENTER": 147.8205, "MEAN_ANOMALY": 4.7215, "EPHEMERIS_TYPE": 0, "CLASSIFICATION_TYPE": "U", "NORAD_CAT_ID": 34696, "ELEMENT_SET_NO": 999, "REV_AT_EPOCH": 86758, "BSTAR": 0.0032443033, "MEAN_MOTION_DOT": 0.00018298, "MEAN_MOTION_DDOT": 0}, "tle": {"line1": "1 34696U 97051KT  25352.57381146  .00018298  00000+0  32443-2 0  9997", "line2": "2 34696  86.1844  24.8077 0073862 147.8205   4.7215 14.65374938867585"}}, "geometry": {"type": "Point", "coordinates": [-179.31218656677845, 80.57707819176657]}}, {"type": "Feature", "properties": {"norad_id": 34765, "name": "IRIDIUM 33 DEB", "group": "iridium-33-debris", "lat": 68.79888825438901, "lon": -159.6199317203989, "alt_km": 747.8367180600262, "timestamp": "2025-12-19T10:50:01.586679+00:00", "meta": {"OBJECT_NAME": "IRIDIUM 33 DEB", "OBJECT_ID": "1997-051LJ", "EPOCH": "2025-12-18T13:21:25.941600", "MEAN_MOTION": 14.40479279, "ECCENTRICITY": 0.00160914, "INCLINATION": 86.3386, "RA_OF_ASC_NODE": 30.2656, "ARG_OF_PERICENTER": 191.4295, "MEAN_ANOMALY": 322.071, "EPHEMERIS_TYPE": 0, "CLASSIFICATION_TYPE": "U", "NORAD_CAT_ID": 34765, "ELEMENT_SET_NO": 999, "REV_AT_EPOCH": 87697, "BSTAR": 0.00029987235, "MEAN_MOTION_DOT": 9.74e-06, "MEAN_MOTION_DDOT": 0}, "tle": {"line1": "1 34765U 97051LJ  25352.55655025  .00000974  00000+0  29987-3 0  9994", "line2": "2 34765  86.3386  30.2656 0016091 191.4295 322.0710 14.40479279876970"}}, "geometry": {"type": "Point", "coordinates": [-159.6199317203989, 68.79888825438901]}}]}